start=new Date('2022-09-24T00:00:00.000Z').valueOf();
sats=[{"EPOCH":"2022-09-23T17:38:14.886528","FILE":"3581681","CENTER_NAME":"EARTH","COUNTRY_CODE":"US","BSTAR":"0.00024137000000","APOAPSIS":"548.215","EPHEMERIS_TYPE":"0","MEAN_MOTION_DOT":"0.00003316","ELEMENT_SET_NO":"999","NORAD_CAT_ID":"48555","LAUNCH_DATE":"2021-05-15","CLASSIFICATION_TYPE":"U","PERIOD":"95.592","INCLINATION":"53.0553","TIME_SYSTEM":"UTC","OBJECT_ID":"2021-041C","RCS_SIZE":"LARGE","SITE":"AFETR","GP_ID":"213332783","SEMIMAJOR_AXIS":"6925.340","REF_FRAME":"TEME","OBJECT_NAME":"STARLINK-2145","PERIAPSIS":"546.194","RA_OF_ASC_NODE":"51.2487","TLE_LINE2":"2 48555  53.0553  51.2487 0001459  73.1081 287.0068 15.06402880 74709","MEAN_ELEMENT_THEORY":"SGP4","MEAN_MOTION":"15.06402880","MEAN_ANOMALY":"287.0068","DECAY_DATE":null,"ARG_OF_PERICENTER":"73.1081","REV_AT_EPOCH":"7470","ECCENTRICITY":"0.00014590","TLE_LINE1":"1 48555U 21041C   22266.73489452  .00003316  00000-0  24137-3 0  9998","OBJECT_TYPE":"PAYLOAD","MEAN_MOTION_DDOT":"0.0000000000000"},{"ARG_OF_PERICENTER":"59.2339","MEAN_MOTION":"15.06397043","TLE_LINE2":"2 48556  53.0548  51.3028 0001321  59.2339 300.8780 15.06397043 74704","MEAN_ELEMENT_THEORY":"SGP4","DECAY_DATE":null,"MEAN_ANOMALY":"300.8780","TLE_LINE1":"1 48556U 21041D   22266.72383948  .00000211  00000-0  33067-4 0  9995","OBJECT_TYPE":"PAYLOAD","ECCENTRICITY":"0.00013210","MEAN_MOTION_DDOT":"0.0000000000000","REV_AT_EPOCH":"7470","SITE":"AFETR","GP_ID":"213334034","SEMIMAJOR_AXIS":"6925.358","OBJECT_ID":"2021-041D","INCLINATION":"53.0548","TIME_SYSTEM":"UTC","RCS_SIZE":"LARGE","PERIAPSIS":"546.308","OBJECT_NAME":"STARLINK-2151","RA_OF_ASC_NODE":"51.3028","REF_FRAME":"TEME","ELEMENT_SET_NO":"999","NORAD_CAT_ID":"48556","MEAN_MOTION_DOT":"0.00000211","PERIOD":"95.592","CLASSIFICATION_TYPE":"U","LAUNCH_DATE":"2021-05-15","FILE":"3581681","CENTER_NAME":"EARTH","EPOCH":"2022-09-23T17:22:19.731072","APOAPSIS":"548.137","EPHEMERIS_TYPE":"0","BSTAR":"0.00003306700000","COUNTRY_CODE":"US"},{"MEAN_ELEMENT_THEORY":"SGP4","TLE_LINE2":"2 48557  53.0551  41.5641 0001157  74.3884 285.7233 15.06401770 74832","MEAN_MOTION":"15.06401770","MEAN_ANOMALY":"285.7233","DECAY_DATE":null,"ARG_OF_PERICENTER":"74.3884","REV_AT_EPOCH":"7483","TLE_LINE1":"1 48557U 21041E   22266.66210115  .00003509  00000-0  25435-3 0  9996","OBJECT_TYPE":"PAYLOAD","ECCENTRICITY":"0.00011570","MEAN_MOTION_DDOT":"0.0000000000000","INCLINATION":"53.0551","TIME_SYSTEM":"UTC","OBJECT_ID":"2021-041E","RCS_SIZE":"LARGE","SEMIMAJOR_AXIS":"6925.343","GP_ID":"213334284","SITE":"AFETR","REF_FRAME":"TEME","OBJECT_NAME":"STARLINK-2155","PERIAPSIS":"546.407","RA_OF_ASC_NODE":"41.5641","MEAN_MOTION_DOT":"0.00003509","ELEMENT_SET_NO":"999","NORAD_CAT_ID":"48557","LAUNCH_DATE":"2021-05-15","PERIOD":"95.592","CLASSIFICATION_TYPE":"U","EPOCH":"2022-09-23T15:53:25.539360","FILE":"3581681","CENTER_NAME":"EARTH","COUNTRY_CODE":"US","BSTAR":"0.00025435000000","APOAPSIS":"548.009","EPHEMERIS_TYPE":"0"},{"OBJECT_ID":"2021-041F","INCLINATION":"53.0568","TIME_SYSTEM":"UTC","RCS_SIZE":"LARGE","SITE":"AFETR","GP_ID":"213332533","SEMIMAJOR_AXIS":"6925.350","REF_FRAME":"TEME","PERIAPSIS":"546.222","OBJECT_NAME":"STARLINK-2166","RA_OF_ASC_NODE":"41.0022","MEAN_MOTION":"15.06399401","TLE_LINE2":"2 48558  53.0568  41.0022 0001435  93.6141 266.5012 15.06399401 73993","MEAN_ELEMENT_THEORY":"SGP4","DECAY_DATE":null,"MEAN_ANOMALY":"266.5012","ARG_OF_PERICENTER":"93.6141","REV_AT_EPOCH":"7399","ECCENTRICITY":"0.00014350","TLE_LINE1":"1 48558U 21041F   22266.79110194 -.00000075  00000-0  13857-4 0  9999","OBJECT_TYPE":"PAYLOAD","MEAN_MOTION_DDOT":"0.0000000000000","EPOCH":"2022-09-23T18:59:11.207616","FILE":"3581681","CENTER_NAME":"EARTH","BSTAR":"0.00001385700000","COUNTRY_CODE":"US","APOAPSIS":"548.209","EPHEMERIS_TYPE":"0","MEAN_MOTION_DOT":"-0.00000075","ELEMENT_SET_NO":"999","NORAD_CAT_ID":"48558","PERIOD":"95.592","CLASSIFICATION_TYPE":"U","LAUNCH_DATE":"2021-05-15"},{"MEAN_MOTION_DOT":"0.00002912","ELEMENT_SET_NO":"999","NORAD_CAT_ID":"48559","LAUNCH_DATE":"2021-05-15","PERIOD":"95.593","CLASSIFICATION_TYPE":"U","EPOCH":"2022-09-23T19:50:55.304736","FILE":"3581681","CENTER_NAME":"EARTH","COUNTRY_CODE":"US","BSTAR":"0.00021436000000","APOAPSIS":"548.207","EPHEMERIS_TYPE":"0","TLE_LINE2":"2 48559  53.0567  40.8285 0001409  77.9793 282.1354 15.06394289 74858","MEAN_ELEMENT_THEORY":"SGP4","MEAN_MOTION":"15.06394289","DECAY_DATE":null,"MEAN_ANOMALY":"282.1354","ARG_OF_PERICENTER":"77.9793","REV_AT_EPOCH":"7485","ECCENTRICITY":"0.00014090","TLE_LINE1":"1 48559U 21041G   22266.82702899  .00002912  00000-0  21436-3 0  9995","OBJECT_TYPE":"PAYLOAD","MEAN_MOTION_DDOT":"0.0000000000000","TIME_SYSTEM":"UTC","INCLINATION":"53.0567","OBJECT_ID":"2021-041G","RCS_SIZE":"LARGE","GP_ID":"213333283","SEMIMAJOR_AXIS":"6925.366","SITE":"AFETR","REF_FRAME":"TEME","OBJECT_NAME":"STARLINK-2167","PERIAPSIS":"546.255","RA_OF_ASC_NODE":"40.8285"},{"EPHEMERIS_TYPE":"0","APOAPSIS":"548.050","BSTAR":"0.00015986000000","COUNTRY_CODE":"US","CENTER_NAME":"EARTH","FILE":"3581351","EPOCH":"2022-09-23T13:50:03.821568","PERIOD":"95.592","CLASSIFICATION_TYPE":"U","LAUNCH_DATE":"2021-05-15","NORAD_CAT_ID":"48561","ELEMENT_SET_NO":"999","MEAN_MOTION_DOT":"0.00002100","RA_OF_ASC_NODE":"12.2292","PERIAPSIS":"546.390","OBJECT_NAME":"STARLINK-2186","REF_FRAME":"TEME","GP_ID":"213301768","SITE":"AFETR","SEMIMAJOR_AXIS":"6925.355","RCS_SIZE":"LARGE","OBJECT_ID":"2021-041J","INCLINATION":"53.0563","TIME_SYSTEM":"UTC","MEAN_MOTION_DDOT":"0.0000000000000","TLE_LINE1":"1 48561U 21041J   22266.57643312  .00002100  00000-0  15986-3 0  9996","OBJECT_TYPE":"PAYLOAD","ECCENTRICITY":"0.00011980","REV_AT_EPOCH":"7524","ARG_OF_PERICENTER":"77.0472","MEAN_ANOMALY":"283.0651","DECAY_DATE":null,"MEAN_MOTION":"15.06397874","MEAN_ELEMENT_THEORY":"SGP4","TLE_LINE2":"2 48561  53.0563  12.2292 0001198  77.0472 283.0651 15.06397874 75245"},{"MEAN_MOTION_DOT":"0.00000482","NORAD_CAT_ID":"48562","ELEMENT_SET_NO":"999","LAUNCH_DATE":"2021-05-15","PERIOD":"95.592","CLASSIFICATION_TYPE":"U","EPOCH":"2022-09-23T16:51:48.387168","CENTER_NAME":"EARTH","FILE":"3581681","COUNTRY_CODE":"US","BSTAR":"0.00005125800000","EPHEMERIS_TYPE":"0","APOAPSIS":"548.015","MEAN_ANOMALY":"280.7178","DECAY_DATE":null,"TLE_LINE2":"2 48562  53.0560  41.3828 0001159  79.3941 280.7178 15.06400479 74843","MEAN_ELEMENT_THEORY":"SGP4","MEAN_MOTION":"15.06400479","ARG_OF_PERICENTER":"79.3941","REV_AT_EPOCH":"7484","MEAN_MOTION_DDOT":"0.0000000000000","OBJECT_TYPE":"PAYLOAD","TLE_LINE1":"1 48562U 21041K   22266.70264337  .00000482  00000-0  51258-4 0  9992","ECCENTRICITY":"0.00011590","RCS_SIZE":"LARGE","INCLINATION":"53.0560","TIME_SYSTEM":"UTC","OBJECT_ID":"2021-041K","SEMIMAJOR_AXIS":"6925.347","GP_ID":"213333785","SITE":"AFETR","REF_FRAME":"TEME","RA_OF_ASC_NODE":"41.3828","OBJECT_NAME":"STARLINK-2187","PERIAPSIS":"546.409"},{"REV_AT_EPOCH":"7485","TLE_LINE1":"1 48563U 21041L   22266.78742641  .00006060  00000-0  42527-3 0  9996","ECCENTRICITY":"0.00013410","OBJECT_TYPE":"PAYLOAD","MEAN_MOTION_DDOT":"0.0000000000000","MEAN_MOTION":"15.06411118","TLE_LINE2":"2 48563  53.0545  40.9989 0001341  66.9903 293.1227 15.06411118 74859","MEAN_ELEMENT_THEORY":"SGP4","MEAN_ANOMALY":"293.1227","DECAY_DATE":null,"ARG_OF_PERICENTER":"66.9903","REF_FRAME":"TEME","PERIAPSIS":"546.251","OBJECT_NAME":"STARLINK-2188","RA_OF_ASC_NODE":"40.9989","OBJECT_ID":"2021-041L","INCLINATION":"53.0545","TIME_SYSTEM":"UTC","RCS_SIZE":"LARGE","SEMIMAJOR_AXIS":"6925.314","GP_ID":"213333033","SITE":"AFETR","PERIOD":"95.591","CLASSIFICATION_TYPE":"U","LAUNCH_DATE":"2021-05-15","MEAN_MOTION_DOT":"0.00006060","ELEMENT_SET_NO":"999","NORAD_CAT_ID":"48563","BSTAR":"0.00042527000000","COUNTRY_CODE":"US","APOAPSIS":"548.108","EPHEMERIS_TYPE":"0","EPOCH":"2022-09-23T18:53:53.641824","FILE":"3581681","CENTER_NAME":"EARTH"},{"DECAY_DATE":null,"MEAN_ANOMALY":"284.2985","MEAN_MOTION":"15.06403137","TLE_LINE2":"2 48564  53.0562  41.0568 0001453  75.8165 284.2985 15.06403137 74851","MEAN_ELEMENT_THEORY":"SGP4","ARG_OF_PERICENTER":"75.8165","REV_AT_EPOCH":"7485","MEAN_MOTION_DDOT":"0.0000000000000","OBJECT_TYPE":"PAYLOAD","TLE_LINE1":"1 48564U 21041M   22266.78004643  .00001009  00000-0  86592-4 0  9999","ECCENTRICITY":"0.00014530","RCS_SIZE":"LARGE","OBJECT_ID":"2021-041M","INCLINATION":"53.0562","TIME_SYSTEM":"UTC","SITE":"AFETR","GP_ID":"213332784","SEMIMAJOR_AXIS":"6925.339","REF_FRAME":"TEME","RA_OF_ASC_NODE":"41.0568","PERIAPSIS":"546.198","OBJECT_NAME":"STARLINK-2190","MEAN_MOTION_DOT":"0.00001009","NORAD_CAT_ID":"48564","ELEMENT_SET_NO":"999","CLASSIFICATION_TYPE":"U","PERIOD":"95.592","LAUNCH_DATE":"2021-05-15","EPOCH":"2022-09-23T18:43:16.011552","CENTER_NAME":"EARTH","FILE":"3581681","BSTAR":"0.00008659200000","COUNTRY_CODE":"US","EPHEMERIS_TYPE":"0","APOAPSIS":"548.210"},{"LAUNCH_DATE":"2021-05-15","CLASSIFICATION_TYPE":"U","PERIOD":"95.592","NORAD_CAT_ID":"48565","ELEMENT_SET_NO":"999","MEAN_MOTION_DOT":"0.00003106","EPHEMERIS_TYPE":"0","APOAPSIS":"548.066","COUNTRY_CODE":"US","BSTAR":"0.00022724000000","CENTER_NAME":"EARTH","FILE":"3581681","EPOCH":"2022-09-23T18:36:36.165312","MEAN_MOTION_DDOT":"0.0000000000000","TLE_LINE1":"1 48565U 21041N   22266.77541858  .00003106  00000-0  22724-3 0  9999","ECCENTRICITY":"0.00012700","OBJECT_TYPE":"PAYLOAD","REV_AT_EPOCH":"7485","ARG_OF_PERICENTER":"80.1559","MEAN_ANOMALY":"279.9573","DECAY_DATE":null,"TLE_LINE2":"2 48565  53.0554  41.0529 0001270  80.1559 279.9573 15.06408862 74857","MEAN_ELEMENT_THEORY":"SGP4","MEAN_MOTION":"15.06408862","RA_OF_ASC_NODE":"41.0529","OBJECT_NAME":"STARLINK-2191","PERIAPSIS":"546.307","REF_FRAME":"TEME","SEMIMAJOR_AXIS":"6925.321","GP_ID":"213334035","SITE":"AFETR","RCS_SIZE":"LARGE","INCLINATION":"53.0554","TIME_SYSTEM":"UTC","OBJECT_ID":"2021-041N"}];
